IRIDIUM 116             
1 43072U 17083C   24318.74091845  .00000591  00000+0  20406-3 0  9990
2 43072  86.4016 204.5689 0002017  76.4948 283.6472 14.34216403360970
IRIDIUM 130             
1 43073U 17083D   24318.70920644  .00000229  00000+0  74776-4 0  9993
2 43073  86.4029 204.8006 0002222  79.5266 280.6180 14.34214414360913
IRIDIUM 151             
1 43074U 17083E   24318.75359866  .00000811  00000+0  28254-3 0  9997
2 43074  86.4020 204.6088 0002041  84.4791 275.6638 14.34211956360943
IRIDIUM 134             
1 43075U 17083F   24318.72189018  .00000825  00000+0  28735-3 0  9994
2 43075  86.4023 204.6217 0002089  77.3861 282.7568 14.34218286360902
IRIDIUM 137             
1 43076U 17083G   24318.73456099  .00000925  00000+0  32340-3 0  9990
2 43076  86.4024 204.6973 0001659  72.6181 287.5196 14.34215266360970
IRIDIUM 141             
1 43077U 17083H   24318.72823402  .00000564  00000+0  19449-3 0  9990
2 43077  86.4022 204.5639 0002293  86.5433 273.6025 14.34213475360973
IRIDIUM 153             
1 43078U 17083J   24318.68041014  .00000681  00000+0  23620-3 0  9993
2 43078  86.4006 173.1146 0002386  98.6671 261.4796 14.34214603362078
IRIDIUM 131             
1 43079U 17083K   24318.71554759  .00000262  00000+0  86425-4 0  9991
2 43079  86.4027 204.7158 0002093  87.9376 272.2059 14.34214784360906
